start=new Date('2022-01-21T00:00:00.000Z').valueOf();
sats=[{"DECAY_DATE":null,"EPOCH":"2022-01-20T06:42:00.887616","NORAD_CAT_ID":"47639","ECCENTRICITY":"0.00019200","APOAPSIS":"548.534","EPHEMERIS_TYPE":"0","OBJECT_NAME":"STARLINK-2016","MEAN_ANOMALY":"302.2404","REF_FRAME":"TEME","ELEMENT_SET_NO":"999","OBJECT_ID":"2021-012V","MEAN_MOTION_DDOT":"0.0000000000000","PERIOD":"95.592","TIME_SYSTEM":"UTC","COUNTRY_CODE":"US","SEMIMAJOR_AXIS":"6925.340","REV_AT_EPOCH":"5274","FILE":"3278533","OBJECT_TYPE":"PAYLOAD","RA_OF_ASC_NODE":"347.6155","CENTER_NAME":"EARTH","LAUNCH_DATE":"2021-02-16","ARG_OF_PERICENTER":"57.8771","RCS_SIZE":"LARGE","GP_ID":"194259562","BSTAR":"0.00026986000000","MEAN_MOTION_DOT":"0.00003740","TLE_LINE1":"1 47639U 21012V   22020.27917694  .00003740  00000-0  26986-3 0  9994","MEAN_MOTION":"15.06402895","INCLINATION":"53.0567","SITE":"AFETR","PERIAPSIS":"545.875","TLE_LINE2":"2 47639  53.0567 347.6155 0001920  57.8771 302.2404 15.06402895 52748","CLASSIFICATION_TYPE":"U","MEAN_ELEMENT_THEORY":"SGP4"},{"OBJECT_ID":"2021-012W","MEAN_MOTION_DDOT":"0.0000000000000","ELEMENT_SET_NO":"999","MEAN_ANOMALY":"291.5647","REF_FRAME":"TEME","OBJECT_NAME":"STARLINK-2018","EPHEMERIS_TYPE":"0","APOAPSIS":"548.369","NORAD_CAT_ID":"47640","ECCENTRICITY":"0.00016680","DECAY_DATE":null,"EPOCH":"2022-01-20T11:20:39.917472","TLE_LINE2":"2 47640  53.0544   6.7578 0001668  68.5520 291.5647 15.06399955 52513","CLASSIFICATION_TYPE":"U","MEAN_ELEMENT_THEORY":"SGP4","SITE":"AFETR","INCLINATION":"53.0544","PERIAPSIS":"546.059","MEAN_MOTION":"15.06399955","TLE_LINE1":"1 47640U 21012W   22020.47268423  .00002072  00000-0  15793-3 0  9998","MEAN_MOTION_DOT":"0.00002072","GP_ID":"194259808","BSTAR":"0.00015793000000","LAUNCH_DATE":"2021-02-16","ARG_OF_PERICENTER":"68.5520","RCS_SIZE":"LARGE","CENTER_NAME":"EARTH","OBJECT_TYPE":"PAYLOAD","RA_OF_ASC_NODE":"6.7578","REV_AT_EPOCH":"5251","FILE":"3278533","SEMIMAJOR_AXIS":"6925.349","COUNTRY_CODE":"US","PERIOD":"95.592","TIME_SYSTEM":"UTC"},{"PERIAPSIS":"546.260","SITE":"AFETR","INCLINATION":"53.0535","MEAN_ELEMENT_THEORY":"SGP4","TLE_LINE2":"2 47641  53.0535 271.2535 0001448  77.0845 105.9317 15.06384090  3597","CLASSIFICATION_TYPE":"U","TLE_LINE1":"1 47641U 21012X   22020.58334491  .00033318  00000-0  22461-2 0  9996","MEAN_MOTION":"15.06384090","MEAN_MOTION_DOT":"0.00033318","GP_ID":"194260563","BSTAR":"0.00224610000000","CENTER_NAME":"EARTH","RCS_SIZE":"LARGE","ARG_OF_PERICENTER":"77.0845","LAUNCH_DATE":"2021-02-16","FILE":"3278533","REV_AT_EPOCH":"359","RA_OF_ASC_NODE":"271.2535","OBJECT_TYPE":"PAYLOAD","COUNTRY_CODE":"US","SEMIMAJOR_AXIS":"6925.397","TIME_SYSTEM":"UTC","PERIOD":"95.593","ELEMENT_SET_NO":"999","MEAN_MOTION_DDOT":"0.0000000000000","OBJECT_ID":"2021-012X","REF_FRAME":"TEME","MEAN_ANOMALY":"105.9317","EPHEMERIS_TYPE":"0","OBJECT_NAME":"STARLINK-2019","APOAPSIS":"548.265","EPOCH":"2022-01-20T14:00:01.000224","DECAY_DATE":null,"ECCENTRICITY":"0.00014480","NORAD_CAT_ID":"47641"},{"SEMIMAJOR_AXIS":"6925.319","COUNTRY_CODE":"US","TIME_SYSTEM":"UTC","PERIOD":"95.592","RCS_SIZE":"MEDIUM","ARG_OF_PERICENTER":"66.7451","LAUNCH_DATE":"2021-02-16","CENTER_NAME":"EARTH","OBJECT_TYPE":"PAYLOAD","RA_OF_ASC_NODE":"2.9546","FILE":"3278565","REV_AT_EPOCH":"5202","MEAN_MOTION_DOT":"0.00007662","BSTAR":"0.00053256000000","GP_ID":"194265506","MEAN_ELEMENT_THEORY":"SGP4","TLE_LINE2":"2 47642  53.0535   2.9546 0001665  66.7451 293.3714 15.06409732 52024","CLASSIFICATION_TYPE":"U","PERIAPSIS":"546.031","SITE":"AFETR","INCLINATION":"53.0535","MEAN_MOTION":"15.06409732","TLE_LINE1":"1 47642U 21012Y   22020.21329126  .00007662  00000-0  53256-3 0  9996","APOAPSIS":"548.337","ECCENTRICITY":"0.00016650","NORAD_CAT_ID":"47642","EPOCH":"2022-01-20T05:07:08.364864","DECAY_DATE":null,"OBJECT_NAME":"STARLINK-2020","EPHEMERIS_TYPE":"0","MEAN_MOTION_DDOT":"0.0000000000000","OBJECT_ID":"2021-012Y","ELEMENT_SET_NO":"999","REF_FRAME":"TEME","MEAN_ANOMALY":"293.3714"},{"DECAY_DATE":null,"EPOCH":"2022-01-20T05:27:42.416064","NORAD_CAT_ID":"47643","ECCENTRICITY":"0.00015760","APOAPSIS":"548.277","MEAN_ANOMALY":"299.8322","REF_FRAME":"TEME","ELEMENT_SET_NO":"999","OBJECT_ID":"2021-012Z","MEAN_MOTION_DDOT":"0.0000000000000","EPHEMERIS_TYPE":"0","OBJECT_NAME":"STARLINK-2022","REV_AT_EPOCH":"5275","FILE":"3278533","RA_OF_ASC_NODE":"347.8478","OBJECT_TYPE":"PAYLOAD","CENTER_NAME":"EARTH","LAUNCH_DATE":"2021-02-16","RCS_SIZE":"LARGE","ARG_OF_PERICENTER":"60.2824","PERIOD":"95.592","TIME_SYSTEM":"UTC","COUNTRY_CODE":"US","SEMIMAJOR_AXIS":"6925.320","TLE_LINE1":"1 47643U 21012Z   22020.22757426  .00007457  00000-0  51882-3 0  9991","MEAN_MOTION":"15.06409277","INCLINATION":"53.0564","SITE":"AFETR","PERIAPSIS":"546.094","MEAN_ELEMENT_THEORY":"SGP4","TLE_LINE2":"2 47643  53.0564 347.8478 0001576  60.2824 299.8322 15.06409277 52756","CLASSIFICATION_TYPE":"U","GP_ID":"194260063","BSTAR":"0.00051882000000","MEAN_MOTION_DOT":"0.00007457"},{"GP_ID":"194265514","BSTAR":"0.00025455000000","MEAN_MOTION_DOT":"0.00003513","MEAN_MOTION":"15.06410013","TLE_LINE1":"1 47644U 21012AA  22020.43950873  .00003513  00000-0  25455-3 0  9992","TLE_LINE2":"2 47644  53.0550   6.9081 0001813  65.0988 295.0189 15.06410013 51997","MEAN_ELEMENT_THEORY":"SGP4","CLASSIFICATION_TYPE":"U","PERIAPSIS":"545.927","SITE":"AFETR","INCLINATION":"53.0550","TIME_SYSTEM":"UTC","PERIOD":"95.592","SEMIMAJOR_AXIS":"6925.318","COUNTRY_CODE":"US","RA_OF_ASC_NODE":"6.9081","OBJECT_TYPE":"PAYLOAD","FILE":"3278566","REV_AT_EPOCH":"5199","RCS_SIZE":"LARGE","ARG_OF_PERICENTER":"65.0988","LAUNCH_DATE":"2021-02-16","CENTER_NAME":"EARTH","OBJECT_NAME":"STARLINK-2026","EPHEMERIS_TYPE":"0","REF_FRAME":"TEME","MEAN_ANOMALY":"295.0189","MEAN_MOTION_DDOT":"0.0000000000000","OBJECT_ID":"2021-012AA","ELEMENT_SET_NO":"999","ECCENTRICITY":"0.00018130","NORAD_CAT_ID":"47644","EPOCH":"2022-01-20T10:32:53.554272","DECAY_DATE":null,"APOAPSIS":"548.438"},{"APOAPSIS":"548.719","ECCENTRICITY":"0.00021460","NORAD_CAT_ID":"47645","EPOCH":"2022-01-20T13:41:16.706400","DECAY_DATE":null,"MEAN_MOTION_DDOT":"0.0000000000000","OBJECT_ID":"2021-012AB","ELEMENT_SET_NO":"999","REF_FRAME":"TEME","MEAN_ANOMALY":"152.3121","OBJECT_NAME":"STARLINK-2027","EPHEMERIS_TYPE":"0","RCS_SIZE":"LARGE","ARG_OF_PERICENTER":"207.7753","LAUNCH_DATE":"2021-02-16","CENTER_NAME":"EARTH","RA_OF_ASC_NODE":"336.3121","OBJECT_TYPE":"PAYLOAD","FILE":"3278533","REV_AT_EPOCH":"5292","SEMIMAJOR_AXIS":"6925.368","COUNTRY_CODE":"US","TIME_SYSTEM":"UTC","PERIOD":"95.593","CLASSIFICATION_TYPE":"U","TLE_LINE2":"2 47645  53.0559 336.3121 0002146 207.7753 152.3121 15.06393668 52928","MEAN_ELEMENT_THEORY":"SGP4","PERIAPSIS":"545.747","SITE":"AFETR","INCLINATION":"53.0559","MEAN_MOTION":"15.06393668","TLE_LINE1":"1 47645U 21012AB  22020.57033225  .00003942  00000-0  28343-3 0  9996","MEAN_MOTION_DOT":"0.00003942","BSTAR":"0.00028343000000","GP_ID":"194261064"},{"DECAY_DATE":null,"EPOCH":"2022-01-20T18:08:40.082208","NORAD_CAT_ID":"47646","ECCENTRICITY":"0.00016260","APOAPSIS":"548.343","EPHEMERIS_TYPE":"0","OBJECT_NAME":"STARLINK-2028","MEAN_ANOMALY":"300.3610","REF_FRAME":"TEME","ELEMENT_SET_NO":"999","OBJECT_ID":"2021-012AC","MEAN_MOTION_DDOT":"0.0000000000000","PERIOD":"95.592","TIME_SYSTEM":"UTC","COUNTRY_CODE":"US","SEMIMAJOR_AXIS":"6925.352","REV_AT_EPOCH":"5294","FILE":"3278566","RA_OF_ASC_NODE":"300.4893","OBJECT_TYPE":"PAYLOAD","CENTER_NAME":"EARTH","LAUNCH_DATE":"2021-02-16","ARG_OF_PERICENTER":"59.7540","RCS_SIZE":"LARGE","GP_ID":"194265225","BSTAR":"0.00018468000000","MEAN_MOTION_DOT":"0.00002470","TLE_LINE1":"1 47646U 21012AC  22020.75601947  .00002470  00000-0  18468-3 0  9991","MEAN_MOTION":"15.06398959","SITE":"AFETR","INCLINATION":"53.0567","PERIAPSIS":"546.091","TLE_LINE2":"2 47646  53.0567 300.4893 0001626  59.7540 300.3610 15.06398959 52945","CLASSIFICATION_TYPE":"U","MEAN_ELEMENT_THEORY":"SGP4"},{"TLE_LINE2":"2 47647  53.0563   5.9695 0001702  65.5854 294.5313 15.06415089 52024","MEAN_ELEMENT_THEORY":"SGP4","CLASSIFICATION_TYPE":"U","INCLINATION":"53.0563","SITE":"AFETR","PERIAPSIS":"545.989","MEAN_MOTION":"15.06415089","TLE_LINE1":"1 47647U 21012AD  22020.64961590  .00007175  00000-0  49988-3 0  9991","MEAN_MOTION_DOT":"0.00007175","GP_ID":"194265513","BSTAR":"0.00049988000000","LAUNCH_DATE":"2021-02-16","ARG_OF_PERICENTER":"65.5854","RCS_SIZE":"LARGE","CENTER_NAME":"EARTH","RA_OF_ASC_NODE":"5.9695","OBJECT_TYPE":"PAYLOAD","REV_AT_EPOCH":"5202","FILE":"3278566","SEMIMAJOR_AXIS":"6925.302","COUNTRY_CODE":"US","PERIOD":"95.591","TIME_SYSTEM":"UTC","OBJECT_ID":"2021-012AD","MEAN_MOTION_DDOT":"0.0000000000000","ELEMENT_SET_NO":"999","MEAN_ANOMALY":"294.5313","REF_FRAME":"TEME","OBJECT_NAME":"STARLINK-2030","EPHEMERIS_TYPE":"0","APOAPSIS":"548.346","NORAD_CAT_ID":"47647","ECCENTRICITY":"0.00017020","DECAY_DATE":null,"EPOCH":"2022-01-20T15:35:26.813760"},{"MEAN_MOTION":"15.06396940","TLE_LINE1":"1 47648U 21012AE  22020.30866367  .00004032  00000-0  28944-3 0  9999","TLE_LINE2":"2 47648  53.0571 347.4963 0001679  57.7930 302.3221 15.06396940 52779","CLASSIFICATION_TYPE":"U","MEAN_ELEMENT_THEORY":"SGP4","PERIAPSIS":"546.060","INCLINATION":"53.0571","SITE":"AFETR","GP_ID":"194259809","BSTAR":"0.00028944000000","MEAN_MOTION_DOT":"0.00004032","OBJECT_TYPE":"PAYLOAD","RA_OF_ASC_NODE":"347.4963","FILE":"3278533","REV_AT_EPOCH":"5277","RCS_SIZE":"MEDIUM","ARG_OF_PERICENTER":"57.7930","LAUNCH_DATE":"2021-02-16","CENTER_NAME":"EARTH","TIME_SYSTEM":"UTC","PERIOD":"95.592","SEMIMAJOR_AXIS":"6925.358","COUNTRY_CODE":"US","REF_FRAME":"TEME","MEAN_ANOMALY":"302.3221","MEAN_MOTION_DDOT":"0.0000000000000","OBJECT_ID":"2021-012AE","ELEMENT_SET_NO":"999","OBJECT_NAME":"STARLINK-2031","EPHEMERIS_TYPE":"0","ECCENTRICITY":"0.00016790","NORAD_CAT_ID":"47648","EPOCH":"2022-01-20T07:24:28.541088","DECAY_DATE":null,"APOAPSIS":"548.386"}];
